{
  "type": "FeatureCollection",
  "metadata": {
    "description": "SAIM Xplorer Semantic Object Map",
    "frame": "map",
    "generated_by": "semantic_localizer",
    "last_updated": "2026-08-20T13:12:42.616992+00:00",
    "object_count": 24
  },
  "features": [
    {
      "type": "Feature",
      "geometry": {
        "type": "Point",
        "coordinates": [
          3.7202,
          -1.5687
        ]
      },
      "properties": {
        "obj_id": "bench_0",
        "class_name": "bench",
        "class_id": 13,
        "mobility": "static",
        "confidence": 0.558,
        "observation_count": 9,
        "best_score": 5.577,
        "first_seen": "2026-08-20T12:03:49.847449+00:00",
        "last_seen": "2026-08-20T12:15:26.552371+00:00",
        "ttl_seconds": -1.0
      }
    },
    {
      "type": "Feature",
      "geometry": {
        "type": "Point",
        "coordinates": [
          7.5651,
          -1.7786
        ]
      },
      "properties": {
        "obj_id": "potted plant_3",
        "class_name": "potted plant",
        "class_id": 58,
        "mobility": "static",
        "confidence": 0.723,
        "observation_count": 138,
        "best_score": 1.839,
        "first_seen": "2026-08-20T12:07:17.104513+00:00",
        "last_seen": "2026-08-20T12:28:18.969028+00:00",
        "ttl_seconds": -1.0
      }
    },
    {
      "type": "Feature",
      "geometry": {
        "type": "Point",
        "coordinates": [
          6.2326,
          -1.8067
        ]
      },
      "properties": {
        "obj_id": "potted plant_4",
        "class_name": "potted plant",
        "class_id": 58,
        "mobility": "static",
        "confidence": 0.827,
        "observation_count": 169,
        "best_score": 4.26,
        "first_seen": "2026-08-20T12:07:18.011085+00:00",
        "last_seen": "2026-08-20T12:23:11.492428+00:00",
        "ttl_seconds": -1.0
      }
    },
    {
      "type": "Feature",
      "geometry": {
        "type": "Point",
        "coordinates": [
          9.0048,
          -1.2173
        ]
      },
      "properties": {
        "obj_id": "bench_5",
        "class_name": "bench",
        "class_id": 13,
        "mobility": "static",
        "confidence": 0.754,
        "observation_count": 73,
        "best_score": 4.928,
        "first_seen": "2026-08-20T12:07:19.355594+00:00",
        "last_seen": "2026-08-20T12:23:10.227825+00:00",
        "ttl_seconds": -1.0
      }
    },
    {
      "type": "Feature",
      "geometry": {
        "type": "Point",
        "coordinates": [
          7.696,
          -1.9238
        ]
      },
      "properties": {
        "obj_id": "potted plant_6",
        "class_name": "potted plant",
        "class_id": 58,
        "mobility": "static",
        "confidence": 0.731,
        "observation_count": 76,
        "best_score": 1.583,
        "first_seen": "2026-08-20T12:07:19.360186+00:00",
        "last_seen": "2026-08-20T12:28:19.428921+00:00",
        "ttl_seconds": -1.0
      }
    },
    {
      "type": "Feature",
      "geometry": {
        "type": "Point",
        "coordinates": [
          4.6172,
          -1.4295
        ]
      },
      "properties": {
        "obj_id": "bench_7",
        "class_name": "bench",
        "class_id": 13,
        "mobility": "static",
        "confidence": 0.851,
        "observation_count": 725,
        "best_score": 92.044,
        "first_seen": "2026-08-20T12:07:26.222782+00:00",
        "last_seen": "2026-08-20T12:22:19.246306+00:00",
        "ttl_seconds": -1.0
      }
    },
    {
      "type": "Feature",
      "geometry": {
        "type": "Point",
        "coordinates": [
          7.778,
          -2.2369
        ]
      },
      "properties": {
        "obj_id": "potted plant_9",
        "class_name": "potted plant",
        "class_id": 58,
        "mobility": "static",
        "confidence": 0.715,
        "observation_count": 23,
        "best_score": 0.688,
        "first_seen": "2026-08-20T12:09:56.335799+00:00",
        "last_seen": "2026-08-20T12:23:07.183013+00:00",
        "ttl_seconds": -1.0
      }
    },
    {
      "type": "Feature",
      "geometry": {
        "type": "Point",
        "coordinates": [
          7.0836,
          -3.1175
        ]
      },
      "properties": {
        "obj_id": "potted plant_10",
        "class_name": "potted plant",
        "class_id": 58,
        "mobility": "static",
        "confidence": 0.688,
        "observation_count": 10,
        "best_score": 0.913,
        "first_seen": "2026-08-20T12:09:56.781709+00:00",
        "last_seen": "2026-08-20T12:09:57.243119+00:00",
        "ttl_seconds": -1.0
      }
    },
    {
      "type": "Feature",
      "geometry": {
        "type": "Point",
        "coordinates": [
          8.5135,
          -2.0113
        ]
      },
      "properties": {
        "obj_id": "bench_11",
        "class_name": "bench",
        "class_id": 13,
        "mobility": "static",
        "confidence": 0.562,
        "observation_count": 2,
        "best_score": 2.332,
        "first_seen": "2026-08-20T12:09:56.783098+00:00",
        "last_seen": "2026-08-20T12:09:56.784027+00:00",
        "ttl_seconds": -1.0
      }
    },
    {
      "type": "Feature",
      "geometry": {
        "type": "Point",
        "coordinates": [
          7.9781,
          -1.3486
        ]
      },
      "properties": {
        "obj_id": "bench_12",
        "class_name": "bench",
        "class_id": 13,
        "mobility": "static",
        "confidence": 0.625,
        "observation_count": 15,
        "best_score": 4.817,
        "first_seen": "2026-08-20T12:10:00.722067+00:00",
        "last_seen": "2026-08-20T12:23:11.103037+00:00",
        "ttl_seconds": -1.0
      }
    },
    {
      "type": "Feature",
      "geometry": {
        "type": "Point",
        "coordinates": [
          -0.2225,
          0.2897
        ]
      },
      "properties": {
        "obj_id": "parking meter_14",
        "class_name": "parking meter",
        "class_id": 12,
        "mobility": "static",
        "confidence": 0.512,
        "observation_count": 1,
        "best_score": 0.764,
        "first_seen": "2026-08-20T12:13:32.003014+00:00",
        "last_seen": "2026-08-20T12:13:32.003014+00:00",
        "ttl_seconds": -1.0
      }
    },
    {
      "type": "Feature",
      "geometry": {
        "type": "Point",
        "coordinates": [
          4.2028,
          -1.3616
        ]
      },
      "properties": {
        "obj_id": "bench_17",
        "class_name": "bench",
        "class_id": 13,
        "mobility": "static",
        "confidence": 0.755,
        "observation_count": 7,
        "best_score": 14.04,
        "first_seen": "2026-08-20T12:15:51.350504+00:00",
        "last_seen": "2026-08-20T12:15:51.355989+00:00",
        "ttl_seconds": -1.0
      }
    },
    {
      "type": "Feature",
      "geometry": {
        "type": "Point",
        "coordinates": [
          8.018,
          -1.385
        ]
      },
      "properties": {
        "obj_id": "potted plant_18",
        "class_name": "potted plant",
        "class_id": 58,
        "mobility": "static",
        "confidence": 0.6,
        "observation_count": 12,
        "best_score": 1.356,
        "first_seen": "2026-08-20T12:15:55.227270+00:00",
        "last_seen": "2026-08-20T12:21:56.069665+00:00",
        "ttl_seconds": -1.0
      }
    },
    {
      "type": "Feature",
      "geometry": {
        "type": "Point",
        "coordinates": [
          9.1139,
          -0.5383
        ]
      },
      "properties": {
        "obj_id": "bench_19",
        "class_name": "bench",
        "class_id": 13,
        "mobility": "static",
        "confidence": 0.729,
        "observation_count": 29,
        "best_score": 3.989,
        "first_seen": "2026-08-20T12:15:55.229337+00:00",
        "last_seen": "2026-08-20T12:23:08.025645+00:00",
        "ttl_seconds": -1.0
      }
    },
    {
      "type": "Feature",
      "geometry": {
        "type": "Point",
        "coordinates": [
          5.6856,
          -1.4012
        ]
      },
      "properties": {
        "obj_id": "potted plant_20",
        "class_name": "potted plant",
        "class_id": 58,
        "mobility": "static",
        "confidence": 0.744,
        "observation_count": 14,
        "best_score": 4.731,
        "first_seen": "2026-08-20T12:15:57.068776+00:00",
        "last_seen": "2026-08-20T12:23:11.991049+00:00",
        "ttl_seconds": -1.0
      }
    },
    {
      "type": "Feature",
      "geometry": {
        "type": "Point",
        "coordinates": [
          6.8575,
          -1.6688
        ]
      },
      "properties": {
        "obj_id": "potted plant_22",
        "class_name": "potted plant",
        "class_id": 58,
        "mobility": "static",
        "confidence": 0.685,
        "observation_count": 51,
        "best_score": 2.352,
        "first_seen": "2026-08-20T12:21:53.343024+00:00",
        "last_seen": "2026-08-20T12:23:11.103074+00:00",
        "ttl_seconds": -1.0
      }
    },
    {
      "type": "Feature",
      "geometry": {
        "type": "Point",
        "coordinates": [
          8.1114,
          -0.5866
        ]
      },
      "properties": {
        "obj_id": "potted plant_23",
        "class_name": "potted plant",
        "class_id": 58,
        "mobility": "static",
        "confidence": 0.609,
        "observation_count": 6,
        "best_score": 1.143,
        "first_seen": "2026-08-20T12:21:55.082798+00:00",
        "last_seen": "2026-08-20T12:21:55.090500+00:00",
        "ttl_seconds": -1.0
      }
    },
    {
      "type": "Feature",
      "geometry": {
        "type": "Point",
        "coordinates": [
          8.8941,
          0.438
        ]
      },
      "properties": {
        "obj_id": "bench_24",
        "class_name": "bench",
        "class_id": 13,
        "mobility": "static",
        "confidence": 0.553,
        "observation_count": 1,
        "best_score": 2.783,
        "first_seen": "2026-08-20T12:21:55.085881+00:00",
        "last_seen": "2026-08-20T12:21:55.085881+00:00",
        "ttl_seconds": -1.0
      }
    },
    {
      "type": "Feature",
      "geometry": {
        "type": "Point",
        "coordinates": [
          7.1175,
          -2.1811
        ]
      },
      "properties": {
        "obj_id": "potted plant_26",
        "class_name": "potted plant",
        "class_id": 58,
        "mobility": "static",
        "confidence": 0.632,
        "observation_count": 8,
        "best_score": 0.37,
        "first_seen": "2026-08-20T12:28:19.829396+00:00",
        "last_seen": "2026-08-20T12:28:19.832397+00:00",
        "ttl_seconds": -1.0
      }
    },
    {
      "type": "Feature",
      "geometry": {
        "type": "Point",
        "coordinates": [
          4.0662,
          -1.8105
        ]
      },
      "properties": {
        "obj_id": "potted plant_27",
        "class_name": "potted plant",
        "class_id": 58,
        "mobility": "static",
        "confidence": 0.578,
        "observation_count": 6,
        "best_score": 2.16,
        "first_seen": "2026-08-20T12:28:21.459350+00:00",
        "last_seen": "2026-08-20T12:28:21.466900+00:00",
        "ttl_seconds": -1.0
      }
    },
    {
      "type": "Feature",
      "geometry": {
        "type": "Point",
        "coordinates": [
          2.2628,
          -1.2661
        ]
      },
      "properties": {
        "obj_id": "tv_32",
        "class_name": "tv",
        "class_id": 62,
        "mobility": "static",
        "confidence": 0.558,
        "observation_count": 78,
        "best_score": 2.123,
        "first_seen": "2026-08-20T13:11:13.108801+00:00",
        "last_seen": "2026-08-20T13:12:36.163107+00:00",
        "ttl_seconds": -1.0
      }
    },
    {
      "type": "Feature",
      "geometry": {
        "type": "Point",
        "coordinates": [
          2.38,
          -3.2874
        ]
      },
      "properties": {
        "obj_id": "tv_33",
        "class_name": "tv",
        "class_id": 62,
        "mobility": "static",
        "confidence": 0.567,
        "observation_count": 29,
        "best_score": 0.339,
        "first_seen": "2026-08-20T13:11:15.755626+00:00",
        "last_seen": "2026-08-20T13:12:37.418982+00:00",
        "ttl_seconds": -1.0
      }
    },
    {
      "type": "Feature",
      "geometry": {
        "type": "Point",
        "coordinates": [
          2.4966,
          -5.2989
        ]
      },
      "properties": {
        "obj_id": "tv_34",
        "class_name": "tv",
        "class_id": 62,
        "mobility": "static",
        "confidence": 0.51,
        "observation_count": 1,
        "best_score": 0.289,
        "first_seen": "2026-08-20T13:11:34.303547+00:00",
        "last_seen": "2026-08-20T13:11:34.303547+00:00",
        "ttl_seconds": -1.0
      }
    },
    {
      "type": "Feature",
      "geometry": {
        "type": "Point",
        "coordinates": [
          2.6131,
          -7.3076
        ]
      },
      "properties": {
        "obj_id": "tv_35",
        "class_name": "tv",
        "class_id": 62,
        "mobility": "static",
        "confidence": 0.517,
        "observation_count": 4,
        "best_score": 0.283,
        "first_seen": "2026-08-20T13:11:36.686424+00:00",
        "last_seen": "2026-08-20T13:12:18.125705+00:00",
        "ttl_seconds": -1.0
      }
    }
  ]
}