{
  "type": "FeatureCollection",
  "metadata": {
    "description": "SAIM Xplorer Semantic Object Map",
    "frame": "map",
    "generated_by": "semantic_localizer",
    "last_updated": "2026-08-21T14:14:39.150969+00:00",
    "object_count": 14
  },
  "features": [
    {
      "type": "Feature",
      "geometry": {
        "type": "Point",
        "coordinates": [
          -1.3817,
          1.4872
        ]
      },
      "properties": {
        "obj_id": "bench_0",
        "class_name": "bench",
        "class_id": 13,
        "mobility": "static",
        "confidence": 0.586,
        "observation_count": 3,
        "best_score": 10.008,
        "first_seen": "2026-08-21T13:37:36.731603+00:00",
        "last_seen": "2026-08-21T13:37:36.742746+00:00",
        "ttl_seconds": -1.0
      }
    },
    {
      "type": "Feature",
      "geometry": {
        "type": "Point",
        "coordinates": [
          -0.6897,
          1.0046
        ]
      },
      "properties": {
        "obj_id": "bench_1",
        "class_name": "bench",
        "class_id": 13,
        "mobility": "static",
        "confidence": 0.622,
        "observation_count": 6,
        "best_score": 11.999,
        "first_seen": "2026-08-21T13:37:37.435955+00:00",
        "last_seen": "2026-08-21T13:37:37.442419+00:00",
        "ttl_seconds": -1.0
      }
    },
    {
      "type": "Feature",
      "geometry": {
        "type": "Point",
        "coordinates": [
          2.9713,
          -1.8531
        ]
      },
      "properties": {
        "obj_id": "bench_2",
        "class_name": "bench",
        "class_id": 13,
        "mobility": "static",
        "confidence": 0.643,
        "observation_count": 15,
        "best_score": 2.462,
        "first_seen": "2026-08-21T13:37:40.074233+00:00",
        "last_seen": "2026-08-21T13:50:41.624602+00:00",
        "ttl_seconds": -1.0
      }
    },
    {
      "type": "Feature",
      "geometry": {
        "type": "Point",
        "coordinates": [
          5.1897,
          3.8343
        ]
      },
      "properties": {
        "obj_id": "bench_3",
        "class_name": "bench",
        "class_id": 13,
        "mobility": "static",
        "confidence": 0.738,
        "observation_count": 6,
        "best_score": 2.133,
        "first_seen": "2026-08-21T13:40:44.964524+00:00",
        "last_seen": "2026-08-21T13:40:44.977985+00:00",
        "ttl_seconds": -1.0
      }
    },
    {
      "type": "Feature",
      "geometry": {
        "type": "Point",
        "coordinates": [
          6.4254,
          3.9451
        ]
      },
      "properties": {
        "obj_id": "bench_6",
        "class_name": "bench",
        "class_id": 13,
        "mobility": "static",
        "confidence": 0.667,
        "observation_count": 4,
        "best_score": 1.703,
        "first_seen": "2026-08-21T13:40:45.740469+00:00",
        "last_seen": "2026-08-21T13:40:45.757567+00:00",
        "ttl_seconds": -1.0
      }
    },
    {
      "type": "Feature",
      "geometry": {
        "type": "Point",
        "coordinates": [
          7.1076,
          4.0062
        ]
      },
      "properties": {
        "obj_id": "bench_7",
        "class_name": "bench",
        "class_id": 13,
        "mobility": "static",
        "confidence": 0.627,
        "observation_count": 2,
        "best_score": 1.531,
        "first_seen": "2026-08-21T13:40:45.744917+00:00",
        "last_seen": "2026-08-21T13:40:45.757643+00:00",
        "ttl_seconds": -1.0
      }
    },
    {
      "type": "Feature",
      "geometry": {
        "type": "Point",
        "coordinates": [
          3.5183,
          -1.6718
        ]
      },
      "properties": {
        "obj_id": "bench_11",
        "class_name": "bench",
        "class_id": 13,
        "mobility": "static",
        "confidence": 0.595,
        "observation_count": 16,
        "best_score": 2.06,
        "first_seen": "2026-08-21T13:44:13.765570+00:00",
        "last_seen": "2026-08-21T13:54:20.762225+00:00",
        "ttl_seconds": -1.0
      }
    },
    {
      "type": "Feature",
      "geometry": {
        "type": "Point",
        "coordinates": [
          2.4576,
          -1.8399
        ]
      },
      "properties": {
        "obj_id": "bench_12",
        "class_name": "bench",
        "class_id": 13,
        "mobility": "static",
        "confidence": 0.576,
        "observation_count": 6,
        "best_score": 2.519,
        "first_seen": "2026-08-21T13:50:42.117883+00:00",
        "last_seen": "2026-08-21T13:50:42.121763+00:00",
        "ttl_seconds": -1.0
      }
    },
    {
      "type": "Feature",
      "geometry": {
        "type": "Point",
        "coordinates": [
          4.0242,
          -1.4018
        ]
      },
      "properties": {
        "obj_id": "bench_14",
        "class_name": "bench",
        "class_id": 13,
        "mobility": "static",
        "confidence": 0.545,
        "observation_count": 4,
        "best_score": 6.891,
        "first_seen": "2026-08-21T13:54:19.121140+00:00",
        "last_seen": "2026-08-21T14:00:53.771217+00:00",
        "ttl_seconds": -1.0
      }
    },
    {
      "type": "Feature",
      "geometry": {
        "type": "Point",
        "coordinates": [
          6.7153,
          -1.795
        ]
      },
      "properties": {
        "obj_id": "potted plant_16",
        "class_name": "potted plant",
        "class_id": 58,
        "mobility": "static",
        "confidence": 0.57,
        "observation_count": 7,
        "best_score": 0.998,
        "first_seen": "2026-08-21T14:00:53.763920+00:00",
        "last_seen": "2026-08-21T14:00:54.259146+00:00",
        "ttl_seconds": -1.0
      }
    },
    {
      "type": "Feature",
      "geometry": {
        "type": "Point",
        "coordinates": [
          7.599,
          -1.7286
        ]
      },
      "properties": {
        "obj_id": "potted plant_17",
        "class_name": "potted plant",
        "class_id": 58,
        "mobility": "static",
        "confidence": 0.549,
        "observation_count": 6,
        "best_score": 0.845,
        "first_seen": "2026-08-21T14:00:54.702902+00:00",
        "last_seen": "2026-08-21T14:00:56.418550+00:00",
        "ttl_seconds": -1.0
      }
    },
    {
      "type": "Feature",
      "geometry": {
        "type": "Point",
        "coordinates": [
          1.2006,
          6.9105
        ]
      },
      "properties": {
        "obj_id": "refrigerator_18",
        "class_name": "refrigerator",
        "class_id": 72,
        "mobility": "static",
        "confidence": 0.658,
        "observation_count": 9,
        "best_score": 4.423,
        "first_seen": "2026-08-21T14:01:00.536544+00:00",
        "last_seen": "2026-08-21T14:01:00.540502+00:00",
        "ttl_seconds": -1.0
      }
    },
    {
      "type": "Feature",
      "geometry": {
        "type": "Point",
        "coordinates": [
          0.8114,
          -1.7054
        ]
      },
      "properties": {
        "obj_id": "suitcase_19",
        "class_name": "suitcase",
        "class_id": 28,
        "mobility": "static",
        "confidence": 0.623,
        "observation_count": 21,
        "best_score": 0.664,
        "first_seen": "2026-08-21T14:04:03.513196+00:00",
        "last_seen": "2026-08-21T14:12:58.476428+00:00",
        "ttl_seconds": -1.0
      }
    },
    {
      "type": "Feature",
      "geometry": {
        "type": "Point",
        "coordinates": [
          2.105,
          -1.9191
        ]
      },
      "properties": {
        "obj_id": "fire hydrant_20",
        "class_name": "fire hydrant",
        "class_id": 10,
        "mobility": "static",
        "confidence": 0.522,
        "observation_count": 2,
        "best_score": 0.479,
        "first_seen": "2026-08-21T14:05:09.323228+00:00",
        "last_seen": "2026-08-21T14:05:09.325897+00:00",
        "ttl_seconds": -1.0
      }
    }
  ]
}