{
  "type": "FeatureCollection",
  "metadata": {
    "description": "SAIM Xplorer Semantic Object Map",
    "frame": "map",
    "generated_by": "semantic_localizer",
    "last_updated": "2026-08-21T12:39:01.267472+00:00",
    "object_count": 18
  },
  "features": [
    {
      "type": "Feature",
      "geometry": {
        "type": "Point",
        "coordinates": [
          6.1177,
          -1.8083
        ]
      },
      "properties": {
        "obj_id": "potted plant_1",
        "class_name": "potted plant",
        "class_id": 58,
        "mobility": "static",
        "confidence": 0.848,
        "observation_count": 89,
        "best_score": 3.679,
        "first_seen": "2026-08-21T11:05:23.552552+00:00",
        "last_seen": "2026-08-21T12:29:47.948753+00:00",
        "ttl_seconds": -1.0
      }
    },
    {
      "type": "Feature",
      "geometry": {
        "type": "Point",
        "coordinates": [
          7.8947,
          -1.5404
        ]
      },
      "properties": {
        "obj_id": "potted plant_2",
        "class_name": "potted plant",
        "class_id": 58,
        "mobility": "static",
        "confidence": 0.719,
        "observation_count": 110,
        "best_score": 2.443,
        "first_seen": "2026-08-21T11:05:23.992915+00:00",
        "last_seen": "2026-08-21T12:34:49.864661+00:00",
        "ttl_seconds": -1.0
      }
    },
    {
      "type": "Feature",
      "geometry": {
        "type": "Point",
        "coordinates": [
          6.379,
          -1.7804
        ]
      },
      "properties": {
        "obj_id": "potted plant_3",
        "class_name": "potted plant",
        "class_id": 58,
        "mobility": "static",
        "confidence": 0.727,
        "observation_count": 101,
        "best_score": 2.623,
        "first_seen": "2026-08-21T11:05:29.897462+00:00",
        "last_seen": "2026-08-21T12:34:51.863345+00:00",
        "ttl_seconds": -1.0
      }
    },
    {
      "type": "Feature",
      "geometry": {
        "type": "Point",
        "coordinates": [
          5.8317,
          -1.5727
        ]
      },
      "properties": {
        "obj_id": "potted plant_4",
        "class_name": "potted plant",
        "class_id": 58,
        "mobility": "static",
        "confidence": 0.686,
        "observation_count": 22,
        "best_score": 5.871,
        "first_seen": "2026-08-21T11:05:30.746195+00:00",
        "last_seen": "2026-08-21T12:29:47.944450+00:00",
        "ttl_seconds": -1.0
      }
    },
    {
      "type": "Feature",
      "geometry": {
        "type": "Point",
        "coordinates": [
          4.5115,
          -1.36
        ]
      },
      "properties": {
        "obj_id": "bench_5",
        "class_name": "bench",
        "class_id": 13,
        "mobility": "static",
        "confidence": 0.716,
        "observation_count": 1491,
        "best_score": 77.661,
        "first_seen": "2026-08-21T11:05:33.620882+00:00",
        "last_seen": "2026-08-21T12:38:30.364140+00:00",
        "ttl_seconds": -1.0
      }
    },
    {
      "type": "Feature",
      "geometry": {
        "type": "Point",
        "coordinates": [
          8.0803,
          6.5673
        ]
      },
      "properties": {
        "obj_id": "potted plant_6",
        "class_name": "potted plant",
        "class_id": 58,
        "mobility": "static",
        "confidence": 0.914,
        "observation_count": 603,
        "best_score": 4.714,
        "first_seen": "2026-08-21T11:09:32.469915+00:00",
        "last_seen": "2026-08-21T12:36:24.394796+00:00",
        "ttl_seconds": -1.0
      }
    },
    {
      "type": "Feature",
      "geometry": {
        "type": "Point",
        "coordinates": [
          6.7854,
          6.8507
        ]
      },
      "properties": {
        "obj_id": "potted plant_7",
        "class_name": "potted plant",
        "class_id": 58,
        "mobility": "static",
        "confidence": 0.85,
        "observation_count": 2531,
        "best_score": 9.317,
        "first_seen": "2026-08-21T11:09:32.945180+00:00",
        "last_seen": "2026-08-21T12:36:45.240696+00:00",
        "ttl_seconds": -1.0
      }
    },
    {
      "type": "Feature",
      "geometry": {
        "type": "Point",
        "coordinates": [
          6.4721,
          6.7938
        ]
      },
      "properties": {
        "obj_id": "chair_8",
        "class_name": "chair",
        "class_id": 56,
        "mobility": "static",
        "confidence": 0.718,
        "observation_count": 39,
        "best_score": 4.856,
        "first_seen": "2026-08-21T11:09:33.387444+00:00",
        "last_seen": "2026-08-21T12:36:19.744971+00:00",
        "ttl_seconds": -1.0
      }
    },
    {
      "type": "Feature",
      "geometry": {
        "type": "Point",
        "coordinates": [
          9.0932,
          -0.9218
        ]
      },
      "properties": {
        "obj_id": "bench_10",
        "class_name": "bench",
        "class_id": 13,
        "mobility": "static",
        "confidence": 0.569,
        "observation_count": 4,
        "best_score": 3.208,
        "first_seen": "2026-08-21T12:24:27.391015+00:00",
        "last_seen": "2026-08-21T12:34:18.527704+00:00",
        "ttl_seconds": -1.0
      }
    },
    {
      "type": "Feature",
      "geometry": {
        "type": "Point",
        "coordinates": [
          3.9286,
          -1.4955
        ]
      },
      "properties": {
        "obj_id": "bench_12",
        "class_name": "bench",
        "class_id": 13,
        "mobility": "static",
        "confidence": 0.531,
        "observation_count": 4,
        "best_score": 5.359,
        "first_seen": "2026-08-21T12:29:47.944838+00:00",
        "last_seen": "2026-08-21T12:29:48.865920+00:00",
        "ttl_seconds": -1.0
      }
    },
    {
      "type": "Feature",
      "geometry": {
        "type": "Point",
        "coordinates": [
          5.2668,
          -1.5867
        ]
      },
      "properties": {
        "obj_id": "potted plant_13",
        "class_name": "potted plant",
        "class_id": 58,
        "mobility": "static",
        "confidence": 0.555,
        "observation_count": 1,
        "best_score": 0.89,
        "first_seen": "2026-08-21T12:29:48.863270+00:00",
        "last_seen": "2026-08-21T12:29:48.863270+00:00",
        "ttl_seconds": -1.0
      }
    },
    {
      "type": "Feature",
      "geometry": {
        "type": "Point",
        "coordinates": [
          7.4657,
          -1.9553
        ]
      },
      "properties": {
        "obj_id": "potted plant_15",
        "class_name": "potted plant",
        "class_id": 58,
        "mobility": "static",
        "confidence": 0.707,
        "observation_count": 42,
        "best_score": 2.441,
        "first_seen": "2026-08-21T12:34:16.757991+00:00",
        "last_seen": "2026-08-21T12:34:53.472752+00:00",
        "ttl_seconds": -1.0
      }
    },
    {
      "type": "Feature",
      "geometry": {
        "type": "Point",
        "coordinates": [
          8.9956,
          -0.0057
        ]
      },
      "properties": {
        "obj_id": "potted plant_16",
        "class_name": "potted plant",
        "class_id": 58,
        "mobility": "static",
        "confidence": 0.502,
        "observation_count": 1,
        "best_score": 0.837,
        "first_seen": "2026-08-21T12:34:50.246958+00:00",
        "last_seen": "2026-08-21T12:34:50.246958+00:00",
        "ttl_seconds": -1.0
      }
    },
    {
      "type": "Feature",
      "geometry": {
        "type": "Point",
        "coordinates": [
          4.3128,
          -1.5858
        ]
      },
      "properties": {
        "obj_id": "potted plant_17",
        "class_name": "potted plant",
        "class_id": 58,
        "mobility": "static",
        "confidence": 0.568,
        "observation_count": 5,
        "best_score": 1.4,
        "first_seen": "2026-08-21T12:34:53.909406+00:00",
        "last_seen": "2026-08-21T12:34:53.916073+00:00",
        "ttl_seconds": -1.0
      }
    },
    {
      "type": "Feature",
      "geometry": {
        "type": "Point",
        "coordinates": [
          9.5371,
          7.9373
        ]
      },
      "properties": {
        "obj_id": "potted plant_19",
        "class_name": "potted plant",
        "class_id": 58,
        "mobility": "static",
        "confidence": 0.845,
        "observation_count": 17,
        "best_score": 1.429,
        "first_seen": "2026-08-21T12:36:24.837690+00:00",
        "last_seen": "2026-08-21T12:36:25.245103+00:00",
        "ttl_seconds": -1.0
      }
    },
    {
      "type": "Feature",
      "geometry": {
        "type": "Point",
        "coordinates": [
          7.0379,
          6.6802
        ]
      },
      "properties": {
        "obj_id": "potted plant_20",
        "class_name": "potted plant",
        "class_id": 58,
        "mobility": "static",
        "confidence": 0.894,
        "observation_count": 2481,
        "best_score": 7.34,
        "first_seen": "2026-08-21T12:36:44.700738+00:00",
        "last_seen": "2026-08-21T12:38:20.810543+00:00",
        "ttl_seconds": -1.0
      }
    },
    {
      "type": "Feature",
      "geometry": {
        "type": "Point",
        "coordinates": [
          -1.2161,
          2.3736
        ]
      },
      "properties": {
        "obj_id": "chair_21",
        "class_name": "chair",
        "class_id": 56,
        "mobility": "static",
        "confidence": 0.506,
        "observation_count": 1,
        "best_score": 0.821,
        "first_seen": "2026-08-21T12:38:37.006997+00:00",
        "last_seen": "2026-08-21T12:38:37.006997+00:00",
        "ttl_seconds": -1.0
      }
    },
    {
      "type": "Feature",
      "geometry": {
        "type": "Point",
        "coordinates": [
          -0.7206,
          0.7047
        ]
      },
      "properties": {
        "obj_id": "dining table_22",
        "class_name": "dining table",
        "class_id": 60,
        "mobility": "static",
        "confidence": 0.501,
        "observation_count": 1,
        "best_score": 7.349,
        "first_seen": "2026-08-21T12:38:37.474888+00:00",
        "last_seen": "2026-08-21T12:38:37.474888+00:00",
        "ttl_seconds": -1.0
      }
    }
  ]
}