{
  "crs": {
    "type": "name",
    "properties": {
      "name": "urn:ogc:def:crs:EPSG::3857"
    }
  },
  "type": "FeatureCollection",
  "name": "graph",
  "features": [
    {"type": "Feature", "geometry": {"type": "Point", "coordinates": [0.5, 0.0]}, "properties": {"frame": "map", "id": 0, "name": "toilet_m", "orientation_z": 0.0, "orientation_w": 1.0}},
    {"type": "Feature", "geometry": {"type": "Point", "coordinates": [0.5, 1.65]}, "properties": {"frame": "map", "id": 1, "name": "hall_entry", "orientation_z": 1.0, "orientation_w": 0.0}},
    {"type": "Feature", "geometry": {"type": "Point", "coordinates": [0.5, 3.2]}, "properties": {"frame": "map", "id": 2, "name": "hall_exit", "orientation_z": 0.0, "orientation_w": 1.0}},
    {"type": "Feature", "geometry": {"type": "Point", "coordinates": [0.5, 4.8]}, "properties": {"frame": "map", "id": 3, "name": "corridor_w_mid", "orientation_z": 0.0, "orientation_w": 1.0}},
    {"type": "Feature", "geometry": {"type": "Point", "coordinates": [0.5, 6.4]}, "properties": {"frame": "map", "id": 4, "name": "toilet_f", "orientation_z": 1.0, "orientation_w": 0.0}},
    {"type": "Feature", "geometry": {"type": "Point", "coordinates": [2.2, 4.8]}, "properties": {"frame": "map", "id": 5, "name": "cb204", "orientation_z": 0.7, "orientation_w": 0.7}},
    {"type": "Feature", "geometry": {"type": "Point", "coordinates": [2.2, 3.0]}, "properties": {"frame": "map", "id": 6, "name": "junction_w1", "orientation_z": 0.0, "orientation_w": 1.0}},
    {"type": "Feature", "geometry": {"type": "Point", "coordinates": [2.2, 1.65]}, "properties": {"frame": "map", "id": 7, "name": "junction_w2", "orientation_z": 0.0, "orientation_w": 1.0}},
    {"type": "Feature", "geometry": {"type": "Point", "coordinates": [2.2, 0.0]}, "properties": {"frame": "map", "id": 8, "name": "cb202", "orientation_z": -0.7, "orientation_w": 0.7}},
    {"type": "Feature", "geometry": {"type": "Point", "coordinates": [4.5, -0.8]}, "properties": {"frame": "map", "id": 9, "name": "radiator", "orientation_z": -0.95, "orientation_w": 0.65}},
    {"type": "Feature", "geometry": {"type": "Point", "coordinates": [4.5, 0.0]}, "properties": {"frame": "map", "id": 10, "name": "junction_s1", "orientation_z": 0.0, "orientation_w": 1.0}},
    {"type": "Feature", "geometry": {"type": "Point", "coordinates": [4.5, 1.65]}, "properties": {"frame": "map", "id": 11, "name": "junction_s2", "orientation_z": 0.0, "orientation_w": 1.0}},
    {"type": "Feature", "geometry": {"type": "Point", "coordinates": [4.5, 3.0]}, "properties": {"frame": "map", "id": 12, "name": "junction_s3", "orientation_z": 0.0, "orientation_w": 1.0}},
    {"type": "Feature", "geometry": {"type": "Point", "coordinates": [7.7, 5.4]}, "properties": {"frame": "map", "id": 13, "name": "plant_4", "orientation_z": 0.7, "orientation_w": 0.7}},
    {"type": "Feature", "geometry": {"type": "Point", "coordinates": [6.55, 5.4]}, "properties": {"frame": "map", "id": 14, "name": "plant_5", "orientation_z": 0.7, "orientation_w": 0.7}},
    {"type": "Feature", "geometry": {"type": "Point", "coordinates": [6.55, 4.8]}, "properties": {"frame": "map", "id": 15, "name": "junction_e1", "orientation_z": 0.0, "orientation_w": 1.0}},
    {"type": "Feature", "geometry": {"type": "Point", "coordinates": [6.55, 3.0]}, "properties": {"frame": "map", "id": 16, "name": "junction_e2", "orientation_z": 0.0, "orientation_w": 1.0}},
    {"type": "Feature", "geometry": {"type": "Point", "coordinates": [6.55, 1.65]}, "properties": {"frame": "map", "id": 17, "name": "junction_e3", "orientation_z": 0.0, "orientation_w": 1.0}},
    {"type": "Feature", "geometry": {"type": "Point", "coordinates": [6.55, 0.0]}, "properties": {"frame": "map", "id": 18, "name": "junction_e4", "orientation_z": 0.0, "orientation_w": 1.0}},
    {"type": "Feature", "geometry": {"type": "Point", "coordinates": [6.55, -0.9]}, "properties": {"frame": "map", "id": 19, "name": "plant_3", "orientation_z": -0.7, "orientation_w": 0.7}},
    {"type": "Feature", "geometry": {"type": "Point", "coordinates": [7.0, -0.9]}, "properties": {"frame": "map", "id": 20, "name": "plant_2", "orientation_z": -0.7, "orientation_w": 0.7}},
    {"type": "Feature", "geometry": {"type": "Point", "coordinates": [7.5, -0.9]}, "properties": {"frame": "map", "id": 21, "name": "plant_1", "orientation_z": -0.7, "orientation_w": 0.7}},
    {"type": "Feature", "geometry": {"type": "Point", "coordinates": [8.2, 1.65]}, "properties": {"frame": "map", "id": 22, "name": "cb203_entrance", "orientation_z": 0.85, "orientation_w": 0.5}},
    {"type": "Feature", "geometry": {"type": "Point", "coordinates": [8.2, 3.67]}, "properties": {"frame": "map", "id": 23, "name": "cb203_exit", "orientation_z": 1.0, "orientation_w": 0.0}},

    {"type": "Feature", "geometry": {"type": "MultiLineString", "coordinates": [[[0.5, 0.0], [2.2, 0.0]]]}, "properties": {"id": 100, "startid": 0, "endid": 8, "cost": 0, "overridable": true}},
    {"type": "Feature", "geometry": {"type": "MultiLineString", "coordinates": [[[2.2, 0.0], [0.5, 0.0]]]}, "properties": {"id": 101, "startid": 8, "endid": 0, "cost": 0, "overridable": true}},
    {"type": "Feature", "geometry": {"type": "MultiLineString", "coordinates": [[[0.5, 0.0], [0.5, 1.65]]]}, "properties": {"id": 102, "startid": 0, "endid": 1, "cost": 0, "overridable": true}},
    {"type": "Feature", "geometry": {"type": "MultiLineString", "coordinates": [[[0.5, 1.65], [0.5, 0.0]]]}, "properties": {"id": 103, "startid": 1, "endid": 0, "cost": 0, "overridable": true}},
    {"type": "Feature", "geometry": {"type": "MultiLineString", "coordinates": [[[0.5, 1.65], [2.2, 1.65]]]}, "properties": {"id": 104, "startid": 1, "endid": 7, "cost": 0, "overridable": true}},
    {"type": "Feature", "geometry": {"type": "MultiLineString", "coordinates": [[[2.2, 1.65], [0.5, 1.65]]]}, "properties": {"id": 105, "startid": 7, "endid": 1, "cost": 0, "overridable": true}},
    {"type": "Feature", "geometry": {"type": "MultiLineString", "coordinates": [[[0.5, 1.65], [0.5, 3.2]]]}, "properties": {"id": 106, "startid": 1, "endid": 2, "cost": 0, "overridable": true}},
    {"type": "Feature", "geometry": {"type": "MultiLineString", "coordinates": [[[0.5, 3.2], [0.5, 1.65]]]}, "properties": {"id": 107, "startid": 2, "endid": 1, "cost": 0, "overridable": true}},
    {"type": "Feature", "geometry": {"type": "MultiLineString", "coordinates": [[[0.5, 3.2], [2.2, 3.0]]]}, "properties": {"id": 108, "startid": 2, "endid": 6, "cost": 0, "overridable": true}},
    {"type": "Feature", "geometry": {"type": "MultiLineString", "coordinates": [[[2.2, 3.0], [0.5, 3.2]]]}, "properties": {"id": 109, "startid": 6, "endid": 2, "cost": 0, "overridable": true}},
    {"type": "Feature", "geometry": {"type": "MultiLineString", "coordinates": [[[0.5, 3.2], [0.5, 4.8]]]}, "properties": {"id": 110, "startid": 2, "endid": 3, "cost": 0, "overridable": true}},
    {"type": "Feature", "geometry": {"type": "MultiLineString", "coordinates": [[[0.5, 4.8], [0.5, 3.2]]]}, "properties": {"id": 111, "startid": 3, "endid": 2, "cost": 0, "overridable": true}},
    {"type": "Feature", "geometry": {"type": "MultiLineString", "coordinates": [[[0.5, 4.8], [0.5, 6.4]]]}, "properties": {"id": 112, "startid": 3, "endid": 4, "cost": 0, "overridable": true}},
    {"type": "Feature", "geometry": {"type": "MultiLineString", "coordinates": [[[0.5, 6.4], [0.5, 4.8]]]}, "properties": {"id": 113, "startid": 4, "endid": 3, "cost": 0, "overridable": true}},
    {"type": "Feature", "geometry": {"type": "MultiLineString", "coordinates": [[[0.5, 4.8], [2.2, 4.8]]]}, "properties": {"id": 114, "startid": 3, "endid": 5, "cost": 0, "overridable": true}},
    {"type": "Feature", "geometry": {"type": "MultiLineString", "coordinates": [[[2.2, 4.8], [0.5, 4.8]]]}, "properties": {"id": 115, "startid": 5, "endid": 3, "cost": 0, "overridable": true}},
    {"type": "Feature", "geometry": {"type": "MultiLineString", "coordinates": [[[2.2, 4.8], [2.2, 3.0]]]}, "properties": {"id": 116, "startid": 5, "endid": 6, "cost": 0, "overridable": true}},
    {"type": "Feature", "geometry": {"type": "MultiLineString", "coordinates": [[[2.2, 3.0], [2.2, 4.8]]]}, "properties": {"id": 117, "startid": 6, "endid": 5, "cost": 0, "overridable": true}},
    {"type": "Feature", "geometry": {"type": "MultiLineString", "coordinates": [[[2.2, 3.0], [4.5, 3.0]]]}, "properties": {"id": 118, "startid": 6, "endid": 12, "cost": 0, "overridable": true}},
    {"type": "Feature", "geometry": {"type": "MultiLineString", "coordinates": [[[4.5, 3.0], [2.2, 3.0]]]}, "properties": {"id": 119, "startid": 12, "endid": 6, "cost": 0, "overridable": true}},
    {"type": "Feature", "geometry": {"type": "MultiLineString", "coordinates": [[[2.2, 3.0], [2.2, 1.65]]]}, "properties": {"id": 120, "startid": 6, "endid": 7, "cost": 0, "overridable": true}},
    {"type": "Feature", "geometry": {"type": "MultiLineString", "coordinates": [[[2.2, 1.65], [2.2, 3.0]]]}, "properties": {"id": 121, "startid": 7, "endid": 6, "cost": 0, "overridable": true}},
    {"type": "Feature", "geometry": {"type": "MultiLineString", "coordinates": [[[2.2, 1.65], [2.2, 0.0]]]}, "properties": {"id": 122, "startid": 7, "endid": 8, "cost": 0, "overridable": true}},
    {"type": "Feature", "geometry": {"type": "MultiLineString", "coordinates": [[[2.2, 0.0], [2.2, 1.65]]]}, "properties": {"id": 123, "startid": 8, "endid": 7, "cost": 0, "overridable": true}},
    {"type": "Feature", "geometry": {"type": "MultiLineString", "coordinates": [[[2.2, 1.65], [4.5, 1.65]]]}, "properties": {"id": 124, "startid": 7, "endid": 11, "cost": 0, "overridable": true}},
    {"type": "Feature", "geometry": {"type": "MultiLineString", "coordinates": [[[4.5, 1.65], [2.2, 1.65]]]}, "properties": {"id": 125, "startid": 11, "endid": 7, "cost": 0, "overridable": true}},
    {"type": "Feature", "geometry": {"type": "MultiLineString", "coordinates": [[[2.2, 0.0], [4.5, 0.0]]]}, "properties": {"id": 126, "startid": 8, "endid": 10, "cost": 0, "overridable": true}},
    {"type": "Feature", "geometry": {"type": "MultiLineString", "coordinates": [[[4.5, 0.0], [2.2, 0.0]]]}, "properties": {"id": 127, "startid": 10, "endid": 8, "cost": 0, "overridable": true}},
    {"type": "Feature", "geometry": {"type": "MultiLineString", "coordinates": [[[4.5, -0.8], [4.5, 0.0]]]}, "properties": {"id": 128, "startid": 9, "endid": 10, "cost": 0, "overridable": true}},
    {"type": "Feature", "geometry": {"type": "MultiLineString", "coordinates": [[[4.5, 0.0], [4.5, -0.8]]]}, "properties": {"id": 129, "startid": 10, "endid": 9, "cost": 0, "overridable": true}},
    {"type": "Feature", "geometry": {"type": "MultiLineString", "coordinates": [[[4.5, 0.0], [6.55, 0.0]]]}, "properties": {"id": 130, "startid": 10, "endid": 18, "cost": 0, "overridable": true}},
    {"type": "Feature", "geometry": {"type": "MultiLineString", "coordinates": [[[6.55, 0.0], [4.5, 0.0]]]}, "properties": {"id": 131, "startid": 18, "endid": 10, "cost": 0, "overridable": true}},
    {"type": "Feature", "geometry": {"type": "MultiLineString", "coordinates": [[[4.5, 0.0], [4.5, 1.65]]]}, "properties": {"id": 132, "startid": 10, "endid": 11, "cost": 0, "overridable": true}},
    {"type": "Feature", "geometry": {"type": "MultiLineString", "coordinates": [[[4.5, 1.65], [4.5, 0.0]]]}, "properties": {"id": 133, "startid": 11, "endid": 10, "cost": 0, "overridable": true}},
    {"type": "Feature", "geometry": {"type": "MultiLineString", "coordinates": [[[4.5, 1.65], [6.55, 1.65]]]}, "properties": {"id": 134, "startid": 11, "endid": 17, "cost": 0, "overridable": true}},
    {"type": "Feature", "geometry": {"type": "MultiLineString", "coordinates": [[[6.55, 1.65], [4.5, 1.65]]]}, "properties": {"id": 135, "startid": 17, "endid": 11, "cost": 0, "overridable": true}},
    {"type": "Feature", "geometry": {"type": "MultiLineString", "coordinates": [[[4.5, 1.65], [4.5, 3.0]]]}, "properties": {"id": 136, "startid": 11, "endid": 12, "cost": 0, "overridable": true}},
    {"type": "Feature", "geometry": {"type": "MultiLineString", "coordinates": [[[4.5, 3.0], [4.5, 1.65]]]}, "properties": {"id": 137, "startid": 12, "endid": 11, "cost": 0, "overridable": true}},
    {"type": "Feature", "geometry": {"type": "MultiLineString", "coordinates": [[[4.5, 3.0], [6.55, 3.0]]]}, "properties": {"id": 138, "startid": 12, "endid": 16, "cost": 0, "overridable": true}},
    {"type": "Feature", "geometry": {"type": "MultiLineString", "coordinates": [[[6.55, 3.0], [4.5, 3.0]]]}, "properties": {"id": 139, "startid": 16, "endid": 12, "cost": 0, "overridable": true}},
    {"type": "Feature", "geometry": {"type": "MultiLineString", "coordinates": [[[7.7, 5.4], [6.55, 5.4]]]}, "properties": {"id": 140, "startid": 13, "endid": 14, "cost": 0, "overridable": true}},
    {"type": "Feature", "geometry": {"type": "MultiLineString", "coordinates": [[[6.55, 5.4], [7.7, 5.4]]]}, "properties": {"id": 141, "startid": 14, "endid": 13, "cost": 0, "overridable": true}},
    {"type": "Feature", "geometry": {"type": "MultiLineString", "coordinates": [[[6.55, 5.4], [6.55, 4.8]]]}, "properties": {"id": 142, "startid": 14, "endid": 15, "cost": 0, "overridable": true}},
    {"type": "Feature", "geometry": {"type": "MultiLineString", "coordinates": [[[6.55, 4.8], [6.55, 5.4]]]}, "properties": {"id": 143, "startid": 15, "endid": 14, "cost": 0, "overridable": true}},
    {"type": "Feature", "geometry": {"type": "MultiLineString", "coordinates": [[[6.55, 4.8], [6.55, 3.0]]]}, "properties": {"id": 144, "startid": 15, "endid": 16, "cost": 0, "overridable": true}},
    {"type": "Feature", "geometry": {"type": "MultiLineString", "coordinates": [[[6.55, 3.0], [6.55, 4.8]]]}, "properties": {"id": 145, "startid": 16, "endid": 15, "cost": 0, "overridable": true}},
    {"type": "Feature", "geometry": {"type": "MultiLineString", "coordinates": [[[6.55, 3.0], [8.2, 3.67]]]}, "properties": {"id": 146, "startid": 16, "endid": 23, "cost": 0, "overridable": true}},
    {"type": "Feature", "geometry": {"type": "MultiLineString", "coordinates": [[[8.2, 3.67], [6.55, 3.0]]]}, "properties": {"id": 147, "startid": 23, "endid": 16, "cost": 0, "overridable": true}},
    {"type": "Feature", "geometry": {"type": "MultiLineString", "coordinates": [[[6.55, 3.0], [6.55, 1.65]]]}, "properties": {"id": 148, "startid": 16, "endid": 17, "cost": 0, "overridable": true}},
    {"type": "Feature", "geometry": {"type": "MultiLineString", "coordinates": [[[6.55, 1.65], [6.55, 3.0]]]}, "properties": {"id": 149, "startid": 17, "endid": 16, "cost": 0, "overridable": true}},
    {"type": "Feature", "geometry": {"type": "MultiLineString", "coordinates": [[[6.55, 1.65], [8.2, 1.65]]]}, "properties": {"id": 150, "startid": 17, "endid": 22, "cost": 0, "overridable": true}},
    {"type": "Feature", "geometry": {"type": "MultiLineString", "coordinates": [[[8.2, 1.65], [6.55, 1.65]]]}, "properties": {"id": 151, "startid": 22, "endid": 17, "cost": 0, "overridable": true}},
    {"type": "Feature", "geometry": {"type": "MultiLineString", "coordinates": [[[6.55, 1.65], [6.55, 0.0]]]}, "properties": {"id": 152, "startid": 17, "endid": 18, "cost": 0, "overridable": true}},
    {"type": "Feature", "geometry": {"type": "MultiLineString", "coordinates": [[[6.55, 0.0], [6.55, 1.65]]]}, "properties": {"id": 153, "startid": 18, "endid": 17, "cost": 0, "overridable": true}},
    {"type": "Feature", "geometry": {"type": "MultiLineString", "coordinates": [[[6.55, 0.0], [6.55, -0.9]]]}, "properties": {"id": 154, "startid": 18, "endid": 19, "cost": 0, "overridable": true}},
    {"type": "Feature", "geometry": {"type": "MultiLineString", "coordinates": [[[6.55, -0.9], [6.55, 0.0]]]}, "properties": {"id": 155, "startid": 19, "endid": 18, "cost": 0, "overridable": true}},
    {"type": "Feature", "geometry": {"type": "MultiLineString", "coordinates": [[[6.55, -0.9], [7.0, -0.9]]]}, "properties": {"id": 156, "startid": 19, "endid": 20, "cost": 0, "overridable": true}},
    {"type": "Feature", "geometry": {"type": "MultiLineString", "coordinates": [[[7.0, -0.9], [6.55, -0.9]]]}, "properties": {"id": 157, "startid": 20, "endid": 19, "cost": 0, "overridable": true}},
    {"type": "Feature", "geometry": {"type": "MultiLineString", "coordinates": [[[7.0, -0.9], [7.5, -0.9]]]}, "properties": {"id": 158, "startid": 20, "endid": 21, "cost": 0, "overridable": true}},
    {"type": "Feature", "geometry": {"type": "MultiLineString", "coordinates": [[[7.5, -0.9], [7.0, -0.9]]]}, "properties": {"id": 159, "startid": 21, "endid": 20, "cost": 0, "overridable": true}}
  ]
}